{"type":"Feature","properties":{"MUN":"VENTNOR CITY","COUNTY":"ATLANTIC","MUN_LABEL":"Ventnor City","MUN_TYPE":"City","NAME":"Ventnor City","GNIS_NAME":"City of Ventnor City"},"geometry":{"type":"Polygon","coordinates":[[[-74.4914414,39.3530061],[-74.4908657,39.3529847],[-74.4900706,39.353006],[-74.4893851,39.3531762],[-74.4886769,39.3535356],[-74.4886721,39.353538],[-74.4878221,39.3541765],[-74.4869172,39.3547298],[-74.4857142,39.3555161],[-74.4853541,39.3557514],[-74.4840104,39.3565601],[-74.483577,39.356883],[-74.4827267,39.3575165],[-74.4826392,39.3575817],[-74.4819262,39.3580498],[-74.4812406,39.3583052],[-74.4803631,39.3584966],[-74.4790252,39.3585388],[-74.4790195,39.358539],[-74.47786,39.3584456],[-74.4774292,39.3584109],[-74.4765393,39.3582956],[-74.4760218,39.357669],[-74.4757081,39.3572791],[-74.4756206,39.3571704],[-74.4754333,39.3569375],[-74.4753396,39.356821],[-74.4750701,39.356486],[-74.4749649,39.3563553],[-74.4748525,39.3562156],[-74.4746537,39.3559684],[-74.4739992,39.3551549],[-74.4737434,39.3548369],[-74.4736159,39.3546785],[-74.4735036,39.3545388],[-74.4677714,39.3474125],[-74.4672839,39.3468064],[-74.4654309,39.3445023],[-74.4644051,39.3432267],[-74.4640293,39.3427593],[-74.4641308,39.342717],[-74.4643175,39.3426275],[-74.4644768,39.3425508],[-74.4647186,39.3424613],[-74.4651855,39.3422525],[-74.4655316,39.3421332],[-74.4657568,39.342001],[-74.4662841,39.3418008],[-74.4666357,39.3416345],[-74.4669159,39.3415365],[-74.4671686,39.3414087],[-74.4674872,39.3412254],[-74.4678662,39.3410464],[-74.4680805,39.3409697],[-74.4681628,39.340927],[-74.4683881,39.3408333],[-74.4686298,39.3407267],[-74.4688934,39.3406031],[-74.4691461,39.3404881],[-74.4694757,39.3403602],[-74.4696789,39.3402622],[-74.4697778,39.3402067],[-74.4699371,39.3401172],[-74.4701843,39.3400022],[-74.470437,39.3398743],[-74.4707226,39.3397549],[-74.4708984,39.3396868],[-74.4710577,39.339593],[-74.4712829,39.3394864],[-74.4715027,39.3393969],[-74.4718487,39.3392264],[-74.4721783,39.3390687],[-74.4724804,39.338928],[-74.472777,39.3387405],[-74.4732659,39.3385231],[-74.4734417,39.338425],[-74.4736779,39.3383313],[-74.4739855,39.3381565],[-74.4742162,39.3380712],[-74.474337,39.3379988],[-74.4745842,39.3378922],[-74.4747984,39.3377856],[-74.4748753,39.3377387],[-74.4750016,39.3377004],[-74.4751499,39.3375895],[-74.4753916,39.3375043],[-74.4755729,39.337402],[-74.4758201,39.3372784],[-74.4761386,39.3370951],[-74.4763528,39.3370354],[-74.4765506,39.3369288],[-74.4767538,39.3368222],[-74.4770779,39.3366304],[-74.4772646,39.3365451],[-74.4775228,39.3364428],[-74.4777699,39.3363363],[-74.4782423,39.3361402],[-74.4785224,39.3360208],[-74.4787937,39.335897],[-74.4791719,39.3357755],[-74.4793993,39.3356773],[-74.4796188,39.3355738],[-74.4801578,39.3353174],[-74.4804621,39.3351976],[-74.4809585,39.3350125],[-74.4813559,39.3348271],[-74.4818309,39.3346419],[-74.4821848,39.3345002],[-74.4826104,39.3343423],[-74.4829431,39.3341952],[-74.4832129,39.3340862],[-74.4835032,39.3339389],[-74.4837297,39.3338407],[-74.4840493,39.333677],[-74.4843546,39.3335297],[-74.4846167,39.33341],[-74.4847723,39.3333389],[-74.4852614,39.3331482],[-74.4855882,39.3329297],[-74.4857863,39.3328534],[-74.4860845,39.3327335],[-74.4863888,39.3326412],[-74.4865657,39.3325813],[-74.4867155,39.3324445],[-74.4870624,39.3322535],[-74.4873253,39.3321115],[-74.4877004,39.331937],[-74.4879278,39.3318553],[-74.4882321,39.331741],[-74.4889126,39.3314082],[-74.4891117,39.3312989],[-74.4893242,39.3311569],[-74.4895516,39.3310642],[-74.4897995,39.3309333],[-74.4901249,39.330786],[-74.4905577,39.3305512],[-74.4906359,39.3305106],[-74.4909922,39.3309511],[-74.4914951,39.3315729],[-74.4916453,39.3317583],[-74.4924967,39.3328098],[-74.492732,39.3331082],[-74.4928403,39.3332428],[-74.4933265,39.3338515],[-74.4937676,39.3344042],[-74.4938461,39.3345025],[-74.4944664,39.3352609],[-74.4945607,39.3353752],[-74.4946382,39.3354693],[-74.4949651,39.3358078],[-74.4952669,39.3361301],[-74.4957085,39.3365873],[-74.4960213,39.3369113],[-74.4965914,39.3375102],[-74.4966599,39.3375827],[-74.4967778,39.3377076],[-74.4973668,39.338324],[-74.4976044,39.3385762],[-74.5006143,39.3417145],[-74.501382,39.3425549],[-74.5013837,39.3425568],[-74.5019792,39.343171],[-74.5035977,39.3448404],[-74.5036336,39.3448774],[-74.5038569,39.3448476],[-74.5040798,39.3448162],[-74.5043023,39.3447834],[-74.5045243,39.3447492],[-74.5047459,39.3447134],[-74.504967,39.3446761],[-74.5051877,39.3446374],[-74.5054079,39.3445971],[-74.5055366,39.3445729],[-74.5056651,39.3445482],[-74.5057935,39.3445229],[-74.5059217,39.3444972],[-74.5060497,39.3444709],[-74.5061776,39.3444441],[-74.5063054,39.3444169],[-74.506433,39.3443891],[-74.5063739,39.3444378],[-74.5063158,39.344487],[-74.5062586,39.3445366],[-74.5062024,39.3445868],[-74.5061471,39.3446374],[-74.5060927,39.3446886],[-74.5060393,39.3447402],[-74.5059869,39.3447922],[-74.5059353,39.3448448],[-74.5058847,39.3448979],[-74.5058351,39.3449514],[-74.5057864,39.3450054],[-74.5057387,39.3450599],[-74.5056918,39.3451149],[-74.505646,39.3451704],[-74.505601,39.3452263],[-74.5055533,39.3452882],[-74.5055021,39.345358],[-74.505452,39.3454285],[-74.5053456,39.3455808],[-74.5052311,39.3457404],[-74.5051875,39.3458024],[-74.5051642,39.3458369],[-74.5051429,39.3458693],[-74.5051233,39.3459002],[-74.5051053,39.3459301],[-74.5050746,39.3459828],[-74.5050455,39.3460345],[-74.505018,39.3460854],[-74.504992,39.3461355],[-74.5049675,39.3461849],[-74.5049444,39.3462336],[-74.5049228,39.3462817],[-74.5049027,39.3463292],[-74.5048839,39.3463762],[-74.5048665,39.3464227],[-74.5048505,39.3464686],[-74.5048359,39.346514],[-74.5048227,39.3465589],[-74.5048109,39.3466034],[-74.5048005,39.3466473],[-74.5047915,39.3466909],[-74.5047872,39.3467151],[-74.5047833,39.3467404],[-74.5047799,39.3467672],[-74.5047769,39.3467959],[-74.5047724,39.34685],[-74.5047634,39.3469861],[-74.50476,39.3470245],[-74.5047561,39.347059],[-74.504748,39.3471192],[-74.5047384,39.3471819],[-74.5047272,39.347248],[-74.5047142,39.3473186],[-74.5046883,39.3474479],[-74.5046253,39.3477459],[-74.5046105,39.3478202],[-74.5045977,39.3478876],[-74.5045707,39.3480326],[-74.5045396,39.3481932],[-74.5045073,39.3483558],[-74.5044194,39.3487932],[-74.5043707,39.3490434],[-74.5043455,39.3491787],[-74.5043229,39.3493051],[-74.5043025,39.3494252],[-74.504284,39.3495402],[-74.5042639,39.3496747],[-74.5042464,39.3498042],[-74.5042312,39.3499296],[-74.5042184,39.3500514],[-74.5042078,39.3501703],[-74.5041994,39.3502865],[-74.5041933,39.3504003],[-74.5041894,39.3505119],[-74.5041836,39.3506943],[-74.5041821,39.3507797],[-74.5041823,39.3508235],[-74.5041833,39.3508646],[-74.504185,39.3509035],[-74.5041876,39.3509407],[-74.5041901,39.3509674],[-74.5041934,39.3509952],[-74.5041976,39.3510243],[-74.5042026,39.3510552],[-74.5042141,39.3511167],[-74.5042384,39.3512355],[-74.504248,39.3512845],[-74.5042569,39.3513357],[-74.5042634,39.3513817],[-74.5042758,39.3514885],[-74.5042858,39.3515921],[-74.5042934,39.3516929],[-74.5042988,39.3517912],[-74.5043006,39.3518395],[-74.5043018,39.3518872],[-74.5043024,39.3519344],[-74.5043025,39.3519811],[-74.504302,39.3520273],[-74.5043009,39.352073],[-74.5042993,39.3521182],[-74.5042971,39.352163],[-74.5042911,39.352262],[-74.5042855,39.3523328],[-74.5042821,39.3523656],[-74.5042784,39.3523965],[-74.5042743,39.352426],[-74.5042698,39.3524543],[-74.504234,39.3526236],[-74.5041961,39.3527926],[-74.504156,39.3529614],[-74.5041138,39.3531298],[-74.5040694,39.3532979],[-74.504023,39.3534656],[-74.5039743,39.353633],[-74.5039236,39.3538],[-74.5038708,39.3539667],[-74.5038158,39.3541329],[-74.5037587,39.3542987],[-74.5036995,39.354464],[-74.5036382,39.3546289],[-74.5035749,39.3547933],[-74.5035094,39.3549572],[-74.5034419,39.3551206],[-74.5033723,39.3552835],[-74.5033006,39.3554459],[-74.5032269,39.3556077],[-74.5031511,39.3557689],[-74.5030733,39.3559296],[-74.5029934,39.3560897],[-74.5029115,39.3562491],[-74.5028276,39.3564079],[-74.5027417,39.3565661],[-74.5026575,39.356717],[-74.5025714,39.3568674],[-74.5024835,39.357017],[-74.5023938,39.3571661],[-74.5023022,39.3573145],[-74.5022089,39.3574622],[-74.5021138,39.3576092],[-74.5020169,39.3577555],[-74.5019182,39.3579011],[-74.5018177,39.358046],[-74.5017155,39.3581902],[-74.5016115,39.3583336],[-74.5015058,39.3584762],[-74.5013983,39.358618],[-74.5004605,39.3580874],[-74.5000015,39.3578443],[-74.4984364,39.3568436],[-74.4971642,39.3560302],[-74.4971374,39.3560131],[-74.4956723,39.3549883],[-74.4947863,39.3543686],[-74.4931138,39.3536235],[-74.4927527,39.3534611],[-74.4925458,39.3533681],[-74.492072,39.3531551],[-74.4915861,39.3530403],[-74.4914414,39.3530061]]]}}
